[
  {
    "name": "PLEIADES NEO 3",
    "line1": "1 48268U 21034A   26023.93627959 -.00000131  00000+0 -99804-5 0  9992",
    "line2": "2 48268  97.8937 100.7719 0001365  89.0596 271.0773 14.81662664256295",
    "catNr": 48268
  },
  {
    "name": "PLEIADES NEO 4",
    "line1": "1 49070U 21073E   26023.76742571  .00000074  00000+0  16064-4 0  9996",
    "line2": "2 49070  97.8940 100.6014 0001355  93.3892 266.7476 14.81673161239986",
    "catNr": 49070
  }
]